ONEWEB-0463             
1 51650U 22012AE  26164.26185487  .00000032  00000+0  49209-4 0  9996
2 51650  87.9134   6.6604 0001944  90.9425 269.1929 13.17649028213151
ONEWEB-0464             
1 51651U 22012AF  26164.13867431 -.00000621  00000+0 -18144-2 0  9997
2 51651  87.8837  37.0874 0001606  75.6595 284.4711 13.10373941208795
ONEWEB-0468             
1 51652U 22012AG  26164.14531802 -.00000366  00000+0 -10834-2 0  9993
2 51652  87.8834  37.0806 0001566  73.7029 286.4271 13.10375105208779
ONEWEB-0473             
1 51653U 22012AH  26164.20673174 -.00000568  00000+0 -16625-2 0  9998
2 51653  87.8829  37.0691 0001811  78.6067 281.5264 13.10371594208782
ONEWEB-0474             
1 51654U 22012AJ  26164.19843458 -.00000161  00000+0 -49787-3 0  9996
2 51654  87.8842  37.0549 0001641  72.8895 287.2412 13.10370115208771
ONEWEB-0475             
1 51655U 22012AK  26164.27366522  .00000065  00000+0  13492-3 0  9993
2 51655  87.9136   6.6511 0001630  67.3026 292.8278 13.17648860213177
ONEWEB-0490             
1 54113U 22138A   26164.11629403 -.00000005  00000+0 -45981-4 0  9992
2 54113  87.9170 305.7779 0001680  99.9971 260.1352 13.19724081176295
ONEWEB-0492             
1 54114U 22138B   26164.14157323  .00000003  00000+0 -25063-4 0  9999
2 54114  87.9164 305.7745 0001757 105.9714 254.1613 13.19725533176308
ONEWEB-0495             
1 54115U 22138C   26164.11945291 -.00000008  00000+0 -52563-4 0  9997
2 54115  87.9166 305.7814 0001216 102.8545 257.2724 13.19723830176288
ONEWEB-0497             
1 54116U 22138D   26164.13208850  .00000020  00000+0  18773-4 0  9990
2 54116  87.9169 305.7706 0001782  99.5823 260.5511 13.19724200176273
ONEWEB-0499             
1 54117U 22138E   26164.11550787  .00000074  00000+0  15179-3 0  9993
2 54117  87.9163 305.7833 0001606  95.2655 264.8661 13.19726813176286
ONEWEB-0500             
1 54118U 22138F   26164.11786938  .00000008  00000+0 -13086-4 0  9997
2 54118  87.9173 305.7767 0001914 100.1323 260.0026 13.19723758176293
ONEWEB-0501             
1 54119U 22138G   26164.14787576 -.00000051  00000+0 -16054-3 0  9996
2 54119  87.9172 305.7704 0001401  99.3121 260.8170 13.19723130176270
ONEWEB-0502             
1 54120U 22138H   26164.13365810  .00000026  00000+0  32835-4 0  9996
2 54120  87.9174 305.7621 0001639  94.1087 266.0233 13.19723955176294
ONEWEB-0503             
1 54121U 22138J   26164.12261112  .00000037  00000+0  59382-4 0  9994
2 54121  87.9175 305.7701 0001941  90.4528 269.6828 13.19724168176285
ONEWEB-0504             
1 54122U 22138K   26164.10997936  .00000061  00000+0  11983-3 0  9994
2 54122  87.9174 305.7776 0001659  93.1140 267.0182 13.19724854176291
